{
    "links": {
        "self": "http://www.neowsapp.com/rest/v1/neo/3731242?api_key=iIulBulltgU6a56xZRHN4H3l9WmuAYTsLGpBGhQ2"
    },
    "id": "3731242",
    "neo_reference_id": "3731242",
    "name": "(2015 TD323)",
    "designation": "2015 TD323",
    "nasa_jpl_url": "http://ssd.jpl.nasa.gov/sbdb.cgi?sstr=3731242",
    "absolute_magnitude_h": 19.9,
    "estimated_diameter": {
        "kilometers": {
            "estimated_diameter_min": 0.2783267681,
            "estimated_diameter_max": 0.6223575734
        },
        "meters": {
            "estimated_diameter_min": 278.3267680719,
            "estimated_diameter_max": 622.3575733667
        },
        "miles": {
            "estimated_diameter_min": 0.1729441822,
            "estimated_diameter_max": 0.3867149477
        },
        "feet": {
            "estimated_diameter_min": 913.1455937611,
            "estimated_diameter_max": 2041.8556210042
        }
    },
    "is_potentially_hazardous_asteroid": true,
    "close_approach_data": [
        {
            "close_approach_date": "2013-10-01",
            "close_approach_date_full": "2013-Oct-01 16:02",
            "epoch_date_close_approach": 1380643320000,
            "relative_velocity": {
                "kilometers_per_second": "33.8021776374",
                "kilometers_per_hour": "121687.8394948178",
                "miles_per_hour": "75612.0911572106"
            },
            "miss_distance": {
                "astronomical": "0.1622288884",
                "lunar": "63.1070375876",
                "kilometers": "24269096.157107708",
                "miles": "15080117.0777060504"
            },
            "orbiting_body": "Earth"
        },
        {
            "close_approach_date": "2015-10-14",
            "close_approach_date_full": "2015-Oct-14 18:34",
            "epoch_date_close_approach": 1444847640000,
            "relative_velocity": {
                "kilometers_per_second": "27.6645214981",
                "kilometers_per_hour": "99592.2773932968",
                "miles_per_hour": "61882.7681391849"
            },
            "miss_distance": {
                "astronomical": "0.1646592266",
                "lunar": "64.0524391474",
                "kilometers": "24632669.575207342",
                "miles": "15306031.1239396396"
            },
            "orbiting_body": "Earth"
        },
        {
            "close_approach_date": "2017-10-23",
            "close_approach_date_full": "2017-Oct-23 11:15",
            "epoch_date_close_approach": 1508757300000,
            "relative_velocity": {
                "kilometers_per_second": "23.8527459185",
                "kilometers_per_hour": "85869.8853067195",
                "miles_per_hour": "53356.2073451669"
            },
            "miss_distance": {
                "astronomical": "0.4882519304",
                "lunar": "189.9300009256",
                "kilometers": "73041448.811228248",
                "miles": "45385851.7213879024"
            },
            "orbiting_body": "Earth"
        },
        {
            "close_approach_date": "2159-09-21",
            "close_approach_date_full": "2159-Sep-21 08:28",
            "epoch_date_close_approach": 5987032080000,
            "relative_velocity": {
                "kilometers_per_second": "39.9342100355",
                "kilometers_per_hour": "143763.1561279508",
                "miles_per_hour": "89328.8344285037"
            },
            "miss_distance": {
                "astronomical": "0.4229282956",
                "lunar": "164.5191069884",
                "kilometers": "63269172.184490372",
                "miles": "39313640.5977042536"
            },
            "orbiting_body": "Earth"
        },
        {
            "close_approach_date": "2161-10-05",
            "close_approach_date_full": "2161-Oct-05 01:15",
            "epoch_date_close_approach": 6051374100000,
            "relative_velocity": {
                "kilometers_per_second": "32.468019637",
                "kilometers_per_hour": "116884.8706932907",
                "miles_per_hour": "72627.7131260617"
            },
            "miss_distance": {
                "astronomical": "0.1047654827",
                "lunar": "40.7537727703",
                "kilometers": "15672693.061441849",
                "miles": "9738559.8853575562"
            },
            "orbiting_body": "Earth"
        }
    ],
    "orbital_data": {
        "orbit_id": "7",
        "orbit_determination_date": "2017-08-10 06:19:27",
        "first_observation_date": "2015-10-15",
        "last_observation_date": "2015-10-25",
        "data_arc_in_days": 10,
        "observations_used": 67,
        "orbit_uncertainty": "8",
        "minimum_orbit_intersection": ".0303615",
        "jupiter_tisserand_invariant": "3.788",
        "epoch_osculation": "2457312.5",
        "eccentricity": ".6310282760710558",
        "semi_major_axis": "1.616215154755652",
        "inclination": "48.91260656860175",
        "ascending_node_longitude": "13.91543502297536",
        "orbital_period": "750.4939384615225",
        "perihelion_distance": ".5963376918902783",
        "perihelion_argument": "95.89841885876872",
        "aphelion_distance": "2.636092617621026",
        "perihelion_time": "2457366.219472381608",
        "mean_anomaly": "334.231623912882",
        "mean_motion": ".4796840874397775",
        "equinox": "J2000",
        "orbit_class": {
            "orbit_class_type": "APO",
            "orbit_class_description": "Near-Earth asteroid orbits which cross the Earth’s orbit similar to that of 1862 Apollo",
            "orbit_class_range": "a (semi-major axis) > 1.0 AU; q (perihelion) < 1.017 AU"
        }
    },
    "is_sentry_object": false
}